SITRO-AIS 8 (ANOKHIN)   
1 57193U 23091AD  26167.17286449  .00011972  00000+0  38769-3 0  9998
2 57193  97.5058 232.6469 0011804 103.0381 257.2178 15.32113817164299
SITRO-AIS 7 (FARTUSHNIY)
1 57194U 23091AE  26167.19912206  .00008253  00000+0  32685-3 0  9997
2 57194  97.5067 230.0387 0012945 110.3686 249.8944 15.25607216164120
AVION KALUGA 650        
1 57195U 23091AF  26167.17494492  .00005170  00000+0  24044-3 0  9993
2 57195  97.5090 226.7555 0011883 112.3017 247.9479 15.20343919163871
HORS 2                  
1 57196U 23091AG  26167.18439569  .00011398  00000+0  37233-3 0  9992
2 57196  97.5091 234.2002 0009407  90.8173 269.4146 15.31871974164371
A-SEANSAT-PG1           
1 57197U 23091AH  26167.16480177  .00014981  00000+0  41637-3 0  9996
2 57197  97.5084 236.7241 0008327  88.1279 272.0918 15.36931825164557
SITRO-AIS 10 (BURDAEV)  
1 57199U 23091AK  26167.14363858  .00017071  00000+0  44953-3 0  9999
2 57199  97.5085 237.6607 0007589  83.4582 276.7527 15.38579425164609
SITRO-AIS 9 (SHCHUKIN)  
1 57201U 23091AM  26167.16970568  .00015998  00000+0  42820-3 0  9994
2 57201  97.5083 237.4181 0007826  83.4586 276.7549 15.38089424164591
UTMN 2 (RS27S)          
1 57203U 23091AP  26167.14640588  .00011422  00000+0  37127-3 0  9992
2 57203  97.5090 234.3528 0009311  86.9005 273.3302 15.32031789164389
SITRO-AIS 12 (SMIRENNIY)
1 57204U 23091AQ  26167.16052089  .00017303  00000+0  45854-3 0  9998
2 57204  97.5096 237.8752 0007365  78.6390 281.5682 15.38383183164617
SITRO-AIS 11 (SHEFFER)  
1 57208U 23091AU  26167.17421832  .00016271  00000+0  42552-3 0  9994
2 57208  97.5094 238.1352 0007244  78.4385 281.7673 15.38806775164638
H2SAT (HEINRICH HERTZ)  
1 57213U 23093A   26165.68239000  .00000009  00000+0  00000+0 0  9990
2 57213   0.0576 110.9536 0000860  82.8758 315.5159  1.00272092 10895
KUZGTU 1 (RS47S)        
1 57217U 23091AV  26167.11839935  .00010475  00000+0  36421-3 0  9993
2 57217  97.5066 231.5874 0012337 101.3117 258.9510 15.29842808164218
QIANKUN-1               
1 57422U 23103B   26166.36556735  .00020233  18381-5  23233-4 0  9993
2 57422  96.1468 211.3446 0029378 145.9035 214.4147 16.08420909167009
FENGYUN 3F              
1 57490U 23111A   26167.19910029  .00000034  00000+0  36636-4 0  9990
2 57490  98.6835 237.2262 0001586  94.2929 265.8428 14.19938936148725
HJ-2F                   
1 57519U 23116A   26167.20075763  .00006162  00000+0  27008-3 0  9996
2 57519  97.3837 172.4364 0009937  55.1070 305.1099 15.22308960158602
XRISM                   
1 57800U 23137A   26166.93674825  .00004483  00000+0  24590-3 0  9992
2 57800  31.0032   7.7018 0007959 311.4201  48.5754 15.12457150152671
METEOR-M2 4             
1 59051U 24039A   26167.19864465 -.00000004  00000+0  17770-4 0  9993
2 59051  98.7010 126.5091 0007227 163.7378 196.4033 14.22429426119120
GRBBETA                 
1 60237U 24128C   26166.49446256  .00002913  00000+0  20649-3 0  9994
2 60237  61.9889 222.2055 0040850 134.3380 226.1074 15.06630585106017
TRANSPORTER-11 OBJECT A 
1 60468U 24149A   26167.17432681  .00007203  00000+0  22919-3 0  9995
2 60468  97.3735 247.1069 0002703 197.3235 162.7915 15.32892502101900
WARATAH SEED-1          
1 60469U 24149B   26167.19900417  .00010631  00000+0  30623-3 0  9995
2 60469  97.3694 247.7723 0001445 181.0659 179.0582 15.35925410101965
PHISAT 2                
1 60470U 24149C   26167.19765911  .00008083  00000+0  27193-3 0  9991
2 60470  97.3760 246.4188 0000920 173.6199 186.5054 15.31056953101842
LEMUR-2-TOMATOKECHUP    
1 60471U 24149D   26167.19529799  .00009181  00000+0  26406-3 0  9990
2 60471  97.3806 249.2391 0001325 177.5329 182.5921 15.36017182102014
CONNECTA IOT-1          
1 60472U 24149E   26167.17633708  .00003463  00000+0  14791-3 0  9996
2 60472  97.3761 243.4846 0000343 306.6392  53.4814 15.23534126101643
LOPEN                   
1 60473U 24149F   26167.15549561  .00012885  00000+0  32850-3 0  9992
2 60473  97.3783 250.5149 0000727 185.5450 174.5788 15.39663588102107
ROCK                    
1 60474U 24149G   26167.20705644  .00012279  00000+0  31321-3 0  9994
2 60474  97.3780 250.5827 0001021 194.2356 165.8861 15.39660023102115
CONNECTA IOT-3          
1 60475U 24149H   26167.19772075  .00003336  00000+0  14255-3 0  9996
2 60475  97.3736 243.2590 0001355 259.7881 100.3203 15.23546358101652
QUBE                    
1 60476U 24149J   26167.20331282  .00020901  00000+0  41310-3 0  9999
2 60476  97.3784 253.6177 0001864 197.3639 162.7548 15.47152637102312
WREN-1                  
1 60478U 24149L   26167.16064159  .00017154  00000+0  41049-3 0  9997
2 60478  97.3768 251.2619 0003180 253.3266 106.7632 15.41522213102163
TOMORROW-S1             
1 60479U 24149M   26166.96123163  .00006674  00000+0  21380-3 0  9997
2 60479  97.3753 247.4370 0001419 218.1887 141.9255 15.32706964101900
